[{"OBJECT_NAME":"OBJECT H","OBJECT_ID":"2024-205H","EPOCH":"2026-03-09T23:10:36.271776","MEAN_MOTION":15.29110994,"ECCENTRICITY":0.00105089,"INCLINATION":97.4168,"RA_OF_ASC_NODE":147.1265,"ARG_OF_PERICENTER":38.7838,"MEAN_ANOMALY":321.4154,"EPHEMERIS_TYPE":0,"CLASSIFICATION_TYPE":"U","NORAD_CAT_ID":61901,"ELEMENT_SET_NO":999,"REV_AT_EPOCH":7354,"BSTAR":0.00059497566,"MEAN_MOTION_DOT":0.00016783,"MEAN_MOTION_DDOT":0},{"OBJECT_NAME":"STARLINK-35999","OBJECT_ID":"2025-286AC","EPOCH":"2026-03-09T22:36:53.272800","MEAN_MOTION":15.30210068,"ECCENTRICITY":0.00018007,"INCLINATION":53.1613,"RA_OF_ASC_NODE":357.3916,"ARG_OF_PERICENTER":127.4777,"MEAN_ANOMALY":232.6388,"EPHEMERIS_TYPE":0,"CLASSIFICATION_TYPE":"U","NORAD_CAT_ID":66951,"ELEMENT_SET_NO":999,"REV_AT_EPOCH":1545,"BSTAR":0.0010571628,"MEAN_MOTION_DOT":0.00031092,"MEAN_MOTION_DDOT":0}]
